STARLINK-2022           
1 47643U 21012Z   24089.90686470 -.00021400  00000+0 -14264-2 0  9990
2 47643  53.0552 357.9565 0001359  77.7988 282.3154 15.06287537173280
